{
  "type": "FeatureCollection",
  "features": [
    {
      "type": "Feature",
      "properties": {
        "id": "tevragh_zeina",
        "name_ar": "تفرغ زينة",
        "center": [
          -15.9664,
          18.1065
        ]
      },
      "geometry": {
        "type": "Polygon",
        "coordinates": [
          [
            [
              -15.980666666666664,
              18.12350031909671
            ],
            [
              -15.980666666666664,
              18.101887349397575
            ],
            [
              -15.962666666666662,
              18.102465662650605
            ],
            [
              -15.949754398148148,
              18.113666666666667
            ],
            [
              -15.980666666666664,
              18.12350031909671
            ]
          ]
        ]
      }
    },
    {
      "type": "Feature",
      "properties": {
        "id": "ksar",
        "name_ar": "لكصر",
        "center": [
          -15.9592,
          18.0982
        ]
      },
      "geometry": {
        "type": "Polygon",
        "coordinates": [
          [
            [
              -15.949754398148148,
              18.113666666666667
            ],
            [
              -15.962666666666662,
              18.102465662650605
            ],
            [
              -15.962666666666662,
              18.07286666666666
            ],
            [
              -15.960643390140428,
              18.07020186343698
            ],
            [
              -15.944916666666664,
              18.07224317489336
            ],
            [
              -15.928165412583521,
              18.07881709788516
            ],
            [
              -15.932918729349616,
              18.09951041656514
            ],
            [
              -15.945631414473684,
              18.113666666666667
            ],
            [
              -15.949754398148148,
              18.113666666666667
            ]
          ]
        ]
      }
    },
    {
      "type": "Feature",
      "properties": {
        "id": "teyarett",
        "name_ar": "تيارت",
        "center": [
          -15.9288,
          18.1255
        ]
      },
      "geometry": {
        "type": "Polygon",
        "coordinates": [
          [
            [
              -15.944072791405038,
              18.126707622984146
            ],
            [
              -15.927166666666665,
              18.143306363636366
            ],
            [
              -15.91235729266375,
              18.125834294105648
            ],
            [
              -15.932918729349616,
              18.09951041656514
            ],
            [
              -15.945631414473684,
              18.113666666666667
            ],
            [
              -15.944072791405038,
              18.126707622984146
            ]
          ]
        ]
      }
    },
    {
      "type": "Feature",
      "properties": {
        "id": "dar_naim",
        "name_ar": "دار النعيم",
        "center": [
          -15.9087,
          18.1098
        ]
      },
      "geometry": {
        "type": "Polygon",
        "coordinates": [
          [
            [
              -15.91235729266375,
              18.125834294105648
            ],
            [
              -15.878780747086296,
              18.12649470235199
            ],
            [
              -15.86,
              18.048874483587365
            ],
            [
              -15.928165412583521,
              18.07881709788516
            ],
            [
              -15.932918729349616,
              18.09951041656514
            ],
            [
              -15.91235729266375,
              18.125834294105648
            ]
          ]
        ]
      }
    },
    {
      "type": "Feature",
      "properties": {
        "id": "toujounine",
        "name_ar": "توجنين",
        "center": [
          -15.945,
          18.142
        ]
      },
      "geometry": {
        "type": "Polygon",
        "coordinates": [
          [
            [
              -15.961556419105252,
              18.14600302557557
            ],
            [
              -15.937980605842723,
              18.170815602812517
            ],
            [
              -15.927166666666665,
              18.159109459907224
            ],
            [
              -15.927166666666665,
              18.143306363636366
            ],
            [
              -15.944072791405038,
              18.126707622984146
            ],
            [
              -15.961556419105252,
              18.14600302557557
            ]
          ]
        ]
      }
    },
    {
      "type": "Feature",
      "properties": {
        "id": "arafat",
        "name_ar": "عرفات",
        "center": [
          -15.9521,
          18.0435
        ]
      },
      "geometry": {
        "type": "Polygon",
        "coordinates": [
          [
            [
              -15.973033343835322,
              18.056654675488357
            ],
            [
              -15.98258726747362,
              18.03992556021966
            ],
            [
              -15.944916666666664,
              18.019632043010752
            ],
            [
              -15.944916666666664,
              18.07224317489336
            ],
            [
              -15.960643390140428,
              18.07020186343698
            ],
            [
              -15.973033343835322,
              18.056654675488357
            ]
          ]
        ]
      }
    },
    {
      "type": "Feature",
      "properties": {
        "id": "riyad",
        "name_ar": "الرياض",
        "center": [
          -15.9688,
          18.0125
        ]
      },
      "geometry": {
        "type": "Polygon",
        "coordinates": [
          [
            [
              -15.98258726747362,
              18.03992556021966
            ],
            [
              -15.986313167938919,
              18.038166666666672
            ],
            [
              -15.97376134677746,
              17.96
            ],
            [
              -15.897150798843855,
              17.971763452891544
            ],
            [
              -15.944916666666664,
              18.019632043010752
            ],
            [
              -15.98258726747362,
              18.03992556021966
            ]
          ]
        ]
      }
    },
    {
      "type": "Feature",
      "properties": {
        "id": "el_mina",
        "name_ar": "الميناء",
        "center": [
          -15.995,
          18.068
        ]
      },
      "geometry": {
        "type": "Polygon",
        "coordinates": [
          [
            [
              -16.001619047619055,
              18.080666666666673
            ],
            [
              -16.01770275535131,
              18.087289369850538
            ],
            [
              -16.03,
              18.08732111549991
            ],
            [
              -16.03,
              18.047816229719995
            ],
            [
              -15.987638170163192,
              18.038166666666672
            ],
            [
              -15.986313167938919,
              18.038166666666672
            ],
            [
              -15.98258726747362,
              18.03992556021966
            ],
            [
              -15.973033343835322,
              18.056654675488357
            ],
            [
              -16.001619047619055,
              18.080666666666673
            ]
          ]
        ]
      }
    },
    {
      "type": "Feature",
      "properties": {
        "id": "sebkha",
        "name_ar": "السبخة",
        "center": [
          -15.988,
          18.085
        ]
      },
      "geometry": {
        "type": "Polygon",
        "coordinates": [
          [
            [
              -16.001619047619055,
              18.080666666666673
            ],
            [
              -16.01770275535131,
              18.087289369850538
            ],
            [
              -15.981510080160156,
              18.098960806191243
            ],
            [
              -15.970466666666669,
              18.080666666666673
            ],
            [
              -16.001619047619055,
              18.080666666666673
            ]
          ]
        ]
      }
    }
  ]
}